{
  "type": "FeatureCollection",
  "features": [
    {
      "type": "Feature",
      "properties": {
        "norad_id": 34036,
        "name": "COSMOS 2251 DEB",
        "group": "cosmos-2251-debris",
        "lat": -2.770303844141566,
        "lon": 151.5634782321672,
        "alt_km": 595.0463348253943,
        "timestamp": "2025-12-11T05:00:26.701932+00:00",
        "meta_object_name": "COSMOS 2251 DEB",
        "meta_object_id": "1993-036HX",
        "meta_epoch": "2025-12-10T06:31:52.361184",
        "meta_mean_motion": 14.9462929,
        "meta_eccentricity": 0.0012901,
        "meta_inclination": 74.0201,
        "meta_ra_of_asc_node": 154.2466,
        "meta_arg_of_pericenter": 187.8957,
        "meta_mean_anomaly": 172.2026,
        "meta_ephemeris_type": 0,
        "meta_classification_type": "U",
        "meta_norad_cat_id": 34036,
        "meta_element_set_no": 999,
        "meta_rev_at_epoch": 88533,
        "meta_bstar": 0.0061833,
        "meta_mean_motion_dot": 0.0006772,
        "meta_mean_motion_ddot": 0,
        "tle_line1": "1 34036U 93036HX  25344.27213381  .00067720  00000+0  61833-2 0  9996",
        "tle_line2": "2 34036  74.0201 154.2466 0012901 187.8957 172.2026 14.94629290885331"
      },
      "geometry": {
        "type": "Point",
        "coordinates": [
          151.5634782321672,
          -2.770303844141566
        ]
      }
    },
    {
      "type": "Feature",
      "properties": {
        "norad_id": 34037,
        "name": "COSMOS 2251 DEB",
        "group": "cosmos-2251-debris",
        "lat": 26.648798039370515,
        "lon": 61.49504108784514,
        "alt_km": 765.5422281163228,
        "timestamp": "2025-12-11T05:00:26.701942+00:00",
        "meta_object_name": "COSMOS 2251 DEB",
        "meta_object_id": "1993-036HY",
        "meta_epoch": "2025-12-10T22:11:02.605344",
        "meta_mean_motion": 14.34657874,
        "meta_eccentricity": 0.00520377,
        "meta_inclination": 74.0522,
        "meta_ra_of_asc_node": 53.765,
        "meta_arg_of_pericenter": 104.3282,
        "meta_mean_anomaly": 256.3656,
        "meta_ephemeris_type": 0,
        "meta_classification_type": "U",
        "meta_norad_cat_id": 34037,
        "meta_element_set_no": 999,
        "meta_rev_at_epoch": 87691,
        "meta_bstar": 0.00071622076,
        "meta_mean_motion_dot": 2.032e-05,
        "meta_mean_motion_ddot": 0,
        "tle_line1": "1 34037U 93036HY  25344.92433571  .00002032  00000+0  71622-3 0  9997",
        "tle_line2": "2 34037  74.0522  53.7650 0052037 104.3282 256.3656 14.34657874876915"
      },
      "geometry": {
        "type": "Point",
        "coordinates": [
          61.49504108784514,
          26.648798039370515
        ]
      }
    },
    {
      "type": "Feature",
      "properties": {
        "norad_id": 34040,
        "name": "COSMOS 2251 DEB",
        "group": "cosmos-2251-debris",
        "lat": -71.38416927412932,
        "lon": 9.715292460612497,
        "alt_km": 1058.88813343538,
        "timestamp": "2025-12-11T05:00:26.701956+00:00",
        "meta_object_name": "COSMOS 2251 DEB",
        "meta_object_id": "1993-036JB",
        "meta_epoch": "2025-12-10T10:05:17.987712",
        "meta_mean_motion": 13.68370257,
        "meta_eccentricity": 0.03429659,
        "meta_inclination": 73.9559,
        "meta_ra_of_asc_node": 69.6955,
        "meta_arg_of_pericenter": 23.541,
        "meta_mean_anomaly": 338.0985,
        "meta_ephemeris_type": 0,
        "meta_classification_type": "U",
        "meta_norad_cat_id": 34040,
        "meta_element_set_no": 999,
        "meta_rev_at_epoch": 83568,
        "meta_bstar": 0.00057048897,
        "meta_mean_motion_dot": 7.13e-06,
        "meta_mean_motion_ddot": 0,
        "tle_line1": "1 34040U 93036JB  25344.42034708  .00000713  00000+0  57049-3 0  9996",
        "tle_line2": "2 34040  73.9559  69.6955 0342965  23.5410 338.0985 13.68370257835683"
      },
      "geometry": {
        "type": "Point",
        "coordinates": [
          9.715292460612497,
          -71.38416927412932
        ]
      }
    },
    {
      "type": "Feature",
      "properties": {
        "norad_id": 34045,
        "name": "COSMOS 2251 DEB",
        "group": "cosmos-2251-debris",
        "lat": 69.22358574210928,
        "lon": 2.602119238791652,
        "alt_km": 756.8443108267047,
        "timestamp": "2025-12-11T05:00:26.701966+00:00",
        "meta_object_name": "COSMOS 2251 DEB",
        "meta_object_id": "1993-036JG",
        "meta_epoch": "2025-12-10T16:04:56.939808",
        "meta_mean_motion": 14.34067053,
        "meta_eccentricity": 0.00255849,
        "meta_inclination": 74.0389,
        "meta_ra_of_asc_node": 314.6185,
        "meta_arg_of_pericenter": 38.6833,
        "meta_mean_anomaly": 138.5235,
        "meta_ephemeris_type": 0,
        "meta_classification_type": "U",
        "meta_norad_cat_id": 34045,
        "meta_element_set_no": 999,
        "meta_rev_at_epoch": 88003,
        "meta_bstar": 0.00016174243,
        "meta_mean_motion_dot": 4.28e-06,
        "meta_mean_motion_ddot": 0,
        "tle_line1": "1 34045U 93036JG  25344.67010347  .00000428  00000+0  16174-3 0  9998",
        "tle_line2": "2 34045  74.0389 314.6185 0025584  38.6833 138.5235 14.34067053880031"
      },
      "geometry": {
        "type": "Point",
        "coordinates": [
          2.602119238791652,
          69.22358574210928
        ]
      }
    },
    {
      "type": "Feature",
      "properties": {
        "norad_id": 34046,
        "name": "COSMOS 2251 DEB",
        "group": "cosmos-2251-debris",
        "lat": -3.851017937970093,
        "lon": 12.228162358789701,
        "alt_km": 750.2506428291317,
        "timestamp": "2025-12-11T05:00:26.701976+00:00",
        "meta_object_name": "COSMOS 2251 DEB",
        "meta_object_id": "1993-036JH",
        "meta_epoch": "2025-12-10T13:07:12.782208",
        "meta_mean_motion": 14.46442914,
        "meta_eccentricity": 0.0074576,
        "meta_inclination": 74.0396,
        "meta_ra_of_asc_node": 14.5673,
        "meta_arg_of_pericenter": 98.6528,
        "meta_mean_anomaly": 52.6983,
        "meta_ephemeris_type": 0,
        "meta_classification_type": "U",
        "meta_norad_cat_id": 34046,
        "meta_element_set_no": 999,
        "meta_rev_at_epoch": 87794,
        "meta_bstar": 0.0016529,
        "meta_mean_motion_dot": 6.129e-05,
        "meta_mean_motion_ddot": 0,
        "tle_line1": "1 34046U 93036JH  25344.54667572  .00006129  00000+0  16529-2 0  9990",
        "tle_line2": "2 34046  74.0396  14.5673 0074576  98.6528  52.6983 14.46442914877948"
      },
      "geometry": {
        "type": "Point",
        "coordinates": [
          12.228162358789701,
          -3.851017937970093
        ]
      }
    },
    {
      "type": "Feature",
      "properties": {
        "norad_id": 34050,
        "name": "COSMOS 2251 DEB",
        "group": "cosmos-2251-debris",
        "lat": 26.443468448239667,
        "lon": -175.47704927851365,
        "alt_km": 861.9226017234714,
        "timestamp": "2025-12-11T05:00:26.701986+00:00",
        "meta_object_name": "COSMOS 2251 DEB",
        "meta_object_id": "1993-036JM",
        "meta_epoch": "2025-12-10T20:33:05.890752",
        "meta_mean_motion": 13.96176336,
        "meta_eccentricity": 0.02145634,
        "meta_inclination": 74.0884,
        "meta_ra_of_asc_node": 13.2832,
        "meta_arg_of_pericenter": 78.0841,
        "meta_mean_anomaly": 101.6943,
        "meta_ephemeris_type": 0,
        "meta_classification_type": "U",
        "meta_norad_cat_id": 34050,
        "meta_element_set_no": 999,
        "meta_rev_at_epoch": 85405,
        "meta_bstar": 0.00076201462,
        "meta_mean_motion_dot": 1.249e-05,
        "meta_mean_motion_ddot": 0,
        "tle_line1": "1 34050U 93036JM  25344.85631818  .00001249  00000+0  76201-3 0  9995",
        "tle_line2": "2 34050  74.0884  13.2832 0214563  78.0841 101.6943 13.96176336854054"
      },
      "geometry": {
        "type": "Point",
        "coordinates": [
          -175.47704927851365,
          26.443468448239667
        ]
      }
    },
    {
      "type": "Feature",
      "properties": {
        "norad_id": 34053,
        "name": "COSMOS 2251 DEB",
        "group": "cosmos-2251-debris",
        "lat": 19.59219688703099,
        "lon": -109.43938060695967,
        "alt_km": 767.6902130180379,
        "timestamp": "2025-12-11T05:00:26.701996+00:00",
        "meta_object_name": "COSMOS 2251 DEB",
        "meta_object_id": "1993-036JQ",
        "meta_epoch": "2025-12-10T04:00:04.056768",
        "meta_mean_motion": 13.49154743,
        "meta_eccentricity": 0.04220731,
        "meta_inclination": 73.8443,
        "meta_ra_of_asc_node": 246.3173,
        "meta_arg_of_pericenter": 35.2938,
        "meta_mean_anomaly": 327.5344,
        "meta_ephemeris_type": 0,
        "meta_classification_type": "U",
        "meta_norad_cat_id": 34053,
        "meta_element_set_no": 999,
        "meta_rev_at_epoch": 82649,
        "meta_bstar": 0.0010812804,
        "meta_mean_motion_dot": 1.157e-05,
        "meta_mean_motion_ddot": 0,
        "tle_line1": "1 34053U 93036JQ  25344.16671362  .00001157  00000+0  10813-2 0  9994",
        "tle_line2": "2 34053  73.8443 246.3173 0422073  35.2938 327.5344 13.49154743826498"
      },
      "geometry": {
        "type": "Point",
        "coordinates": [
          -109.43938060695967,
          19.59219688703099
        ]
      }
    }
  ]
}